[{"OBJECT_NAME":"OBJECT D","OBJECT_ID":"2022-023D","EPOCH":"2026-03-09T23:24:15.634080","MEAN_MOTION":15.18234448,"ECCENTRICITY":0.01133038,"INCLINATION":63.4606,"RA_OF_ASC_NODE":248.8448,"ARG_OF_PERICENTER":353.4959,"MEAN_ANOMALY":6.4675,"EPHEMERIS_TYPE":0,"CLASSIFICATION_TYPE":"U","NORAD_CAT_ID":51949,"ELEMENT_SET_NO":999,"REV_AT_EPOCH":22265,"BSTAR":0.0002367106,"MEAN_MOTION_DOT":5.513e-5,"MEAN_MOTION_DDOT":0},{"OBJECT_NAME":"STARLINK-5886","OBJECT_ID":"2023-058AK","EPOCH":"2026-03-09T23:38:35.364192","MEAN_MOTION":15.05648558,"ECCENTRICITY":0.00023097,"INCLINATION":97.6046,"RA_OF_ASC_NODE":71.5502,"ARG_OF_PERICENTER":89.8875,"MEAN_ANOMALY":270.2617,"EPHEMERIS_TYPE":0,"CLASSIFICATION_TYPE":"U","NORAD_CAT_ID":56350,"ELEMENT_SET_NO":999,"REV_AT_EPOCH":15824,"BSTAR":9.494342e-6,"MEAN_MOTION_DOT":7.6e-7,"MEAN_MOTION_DDOT":0}]
